{"type": "FeatureCollection", "name": "garut-kecamatan", "properties": {"description": "Batas administrasi 42 kecamatan Kabupaten Garut, Jawa Barat.", "source": "cahyadsn/wilayah_boundaries (Kepmendagri No 300.2.2-2430 Tahun 2025), MIT License"}, "features": [{"type": "Feature", "properties": {"code": "garut-kota", "name": "Garut Kota", "kemendagriCode": "32.05.01", "centroid": [107.9263746604642, -7.244927308809117]}, "geometry": {"type": "Polygon", "coordinates": [[[107.91791407907158, -7.185631245585455], [107.92078785637455, -7.201383540318091], [107.91354926718498, -7.209461673617284], [107.91902200696012, -7.225190523024196], [107.97355862792841, -7.270319989875588], [107.95688979183046, -7.278038586811306], [107.92602752065363, -7.276999436374865], [107.91476252097362, -7.26500670439583], [107.90564157070196, -7.229233696877543], [107.90318933531961, -7.242692688017087], [107.89498206117327, -7.241886719196714], [107.89194163409917, -7.230493879988501], [107.89982136076725, -7.220531401702772], [107.8933218191467, -7.215104103771353], [107.91225204459624, -7.2015712063460455], [107.9079543446174, -7.191163774088864], [107.91791407907158, -7.185631245585455]]]}}, {"type": "Feature", "properties": {"code": "karangpawitan", "name": "Karangpawitan", "kemendagriCode": "32.05.02", "centroid": [107.95307131736385, -7.219764166546115]}, "geometry": {"type": "Polygon", "coordinates": [[[107.96045064308277, -7.173517945097046], [107.97361388497285, -7.190642385837407], [107.97414158016983, -7.212572506815718], [107.98870864129083, -7.239431863189907], [107.98585097714096, -7.257885117903811], [107.97398928178, -7.269942369045054], [107.93275455387959, -7.242198362164629], [107.91354926718498, -7.209461673617284], [107.92095298629135, -7.186465392863568], [107.96045064308277, -7.173517945097046]]]}}, {"type": "Feature", "properties": {"code": "wanaraja", "name": "Wanaraja", "kemendagriCode": "32.05.03", "centroid": [108.00827173522528, -7.188732346933726]}, "geometry": {"type": "Polygon", "coordinates": [[[107.9848539257681, -7.1624720049790085], [108.00245146476334, -7.178151563443862], [108.06837389044273, -7.208731713697603], [108.06638560091483, -7.2159594831435925], [107.99809413793417, -7.2022193288589165], [107.98788594418102, -7.1807266498149716], [107.97044444295676, -7.1866962884029135], [107.96201458300663, -7.168289337083195], [107.9723606689098, -7.156666825413595], [107.9848539257681, -7.1624720049790085]]]}}, {"type": "Feature", "properties": {"code": "tarogong-kaler", "name": "Tarogong Kaler", "kemendagriCode": "32.05.04", "centroid": [107.8630979717303, -7.1740421988389755]}, "geometry": {"type": "Polygon", "coordinates": [[[107.8586736054026, -7.140484205081975], [107.91261645798323, -7.165503474805462], [107.90390538902255, -7.174294980029231], [107.91000824418518, -7.1788029262140185], [107.9051607868409, -7.189198640304937], [107.8868065456856, -7.19046004829255], [107.84590279527782, -7.212736749101623], [107.82710331776394, -7.19456463774776], [107.8296841588969, -7.147527435442726], [107.85230161013124, -7.13684610656253], [107.8586736054026, -7.140484205081975]]]}}, {"type": "Feature", "properties": {"code": "tarogong-kidul", "name": "Tarogong Kidul", "kemendagriCode": "32.05.05", "centroid": [107.88388029960626, -7.2145927796177896]}, "geometry": {"type": "Polygon", "coordinates": [[[107.90536949970272, -7.189541099442124], [107.91234069886423, -7.201398533815222], [107.8933218191467, -7.215104103771353], [107.89982136076725, -7.220531401702772], [107.88916909168029, -7.240873388296166], [107.85645652474886, -7.236937662742889], [107.87425343714648, -7.22660260972259], [107.87350863031912, -7.216221954779371], [107.85931590570453, -7.212944678653969], [107.86273451118882, -7.204083228658021], [107.8868065456856, -7.19046004829255], [107.90536949970272, -7.189541099442124]]]}}, {"type": "Feature", "properties": {"code": "banyuresmi", "name": "Banyuresmi", "kemendagriCode": "32.05.06", "centroid": [107.93499633148241, -7.1510689130547656]}, "geometry": {"type": "Polygon", "coordinates": [[[107.96200631913638, -7.111027807187497], [107.97212070640552, -7.122069407177378], [107.97706856136506, -7.118234202446445], [107.9821820219828, -7.130402766274585], [107.97363071488564, -7.156827869710355], [107.95461286938848, -7.179445293065783], [107.90626169012495, -7.191845169718761], [107.91062151077415, -7.16171563826606], [107.86757741256758, -7.140665236811174], [107.90291706017427, -7.131755881728509], [107.94056782694372, -7.1561598757775755], [107.94780733703902, -7.149550922636934], [107.94107584227635, -7.140003335785252], [107.94233646065919, -7.116335122068165], [107.96200631913638, -7.111027807187497]]]}}, {"type": "Feature", "properties": {"code": "samarang", "name": "Samarang", "kemendagriCode": "32.05.07", "centroid": [107.81053568233226, -7.185806000180976]}, "geometry": {"type": "Polygon", "coordinates": [[[107.82182822379355, -7.1387855458162335], [107.8296841588969, -7.147527435442726], [107.83216817991763, -7.20309354902804], [107.84509509885976, -7.212486197080295], [107.86094054716858, -7.207588541378016], [107.85931590570453, -7.212944678653969], [107.87350863031912, -7.216221954779371], [107.87388897069951, -7.2277157536790355], [107.85629568459825, -7.2369969667365694], [107.78019509712607, -7.199547310859657], [107.75320503058776, -7.16548651988694], [107.77782464878857, -7.154078055857553], [107.78831555791675, -7.161517242426726], [107.81392832713067, -7.133799237644666], [107.82182822379355, -7.1387855458162335]]]}}, {"type": "Feature", "properties": {"code": "pasirwangi", "name": "Pasirwangi", "kemendagriCode": "32.05.08", "centroid": [107.76272762129607, -7.211064093337782]}, "geometry": {"type": "Polygon", "coordinates": [[[107.75567058043299, -7.168805885183417], [107.78019196208942, -7.1995449519379235], [107.80508063766138, -7.206798156909372], [107.83290864032153, -7.229274242811982], [107.82578146094573, -7.233453409447236], [107.82893738884945, -7.240293736566628], [107.78091048263275, -7.2385254823650484], [107.74877168586465, -7.223482678083087], [107.70849163238302, -7.245178978027354], [107.70711277203685, -7.227445907602487], [107.72531819967526, -7.21186564058678], [107.72365557624391, -7.193541086951541], [107.74046019738029, -7.169352397794853], [107.75567058043299, -7.168805885183417]]]}}, {"type": "Feature", "properties": {"code": "leles", "name": "Leles", "kemendagriCode": "32.05.09", "centroid": [107.86549553664067, -7.113666821349528]}, "geometry": {"type": "Polygon", "coordinates": [[[107.84871486020268, -7.063872237913415], [107.84937532770925, -7.07164703618173], [107.86673213797786, -7.080528464616918], [107.8673603162257, -7.1019436140065295], [107.8759991480423, -7.091066938888048], [107.90328871040572, -7.102860499812152], [107.92446131533751, -7.093045082264666], [107.91948534487284, -7.110151404363762], [107.93368349959388, -7.12298090424531], [107.92655500181195, -7.1506156425977565], [107.90291706017427, -7.131755881728509], [107.86892170117562, -7.140969631243422], [107.85230161013124, -7.13684610656253], [107.83153568582333, -7.147763476003547], [107.81824432561518, -7.132754515908118], [107.81143266438602, -7.136232044073552], [107.81112150885059, -7.098010322018695], [107.83384281379489, -7.0899295806855775], [107.83553989295177, -7.067890771242048], [107.84871486020268, -7.063872237913415]]]}}, {"type": "Feature", "properties": {"code": "kadungora", "name": "Kadungora", "kemendagriCode": "32.05.10", "centroid": [107.89493950001439, -7.0740469353305535]}, "geometry": {"type": "Polygon", "coordinates": [[[107.89227500019115, -7.050969999965503], [107.93002607374439, -7.052635430180885], [107.94237345337223, -7.07413271285435], [107.92942809563016, -7.076973010196241], [107.92924485696466, -7.084975694872355], [107.90328871040572, -7.102860499812152], [107.8759991480423, -7.091066938888048], [107.8673603162257, -7.1019436140065295], [107.86673213797786, -7.080528464616918], [107.84676991080278, -7.068613371110132], [107.8490270967232, -7.059273679636533], [107.89227500019115, -7.050969999965503]]]}}, {"type": "Feature", "properties": {"code": "leuwigoong", "name": "Leuwigoong", "kemendagriCode": "32.05.11", "centroid": [107.94365557474623, -7.108330100981729]}, "geometry": {"type": "Polygon", "coordinates": [[[107.94291168772429, -7.077832774662795], [107.94718090527459, -7.091054748577733], [107.965941166052, -7.082550711645979], [107.97952519083498, -7.096471789741258], [107.95930846631273, -7.105264036905737], [107.95434510524245, -7.115650106667033], [107.94233646065919, -7.116335122068165], [107.94107584227635, -7.140003335785252], [107.94780733703902, -7.149550922636934], [107.93938999385318, -7.156284797905073], [107.92655500181195, -7.1506156425977565], [107.93368349959388, -7.12298090424531], [107.91948534487284, -7.110151404363762], [107.92645054285833, -7.097522423620887], [107.91894988133203, -7.088892763989804], [107.93139081293572, -7.075773589779317], [107.94291168772429, -7.077832774662795]]]}}, {"type": "Feature", "properties": {"code": "cibatu", "name": "Cibatu", "kemendagriCode": "32.05.12", "centroid": [107.99832133490173, -7.085295644754155]}, "geometry": {"type": "Polygon", "coordinates": [[[107.98382884882238, -7.042933487290554], [107.99651581785076, -7.042669842938835], [108.00808610588916, -7.065206082694488], [108.02346354700518, -7.075562481123541], [108.03807306422061, -7.114114749895748], [108.02456924817233, -7.116875522887028], [108.00152227893011, -7.1056127049623115], [107.97212070640552, -7.122069407177378], [107.95997471466143, -7.109309120919136], [107.97952519083498, -7.096471789741258], [107.97443142357139, -7.088192925962744], [107.98170299000105, -7.07143020873707], [107.97374520128005, -7.057614285670695], [107.98382884882238, -7.042933487290554]]]}}, {"type": "Feature", "properties": {"code": "kersamanah", "name": "Kersamanah", "kemendagriCode": "32.05.13", "centroid": [108.03108520933816, -7.070335500259685]}, "geometry": {"type": "Polygon", "coordinates": [[[108.0348241715983, -7.034698281100759], [108.05087766277398, -7.080881402654541], [108.04425791057417, -7.11695648885086], [108.02766361388473, -7.096585883131979], [108.03342968193431, -7.0942958179975335], [108.02346354700518, -7.075562481123541], [107.99791065825036, -7.049895313717684], [108.0348241715983, -7.034698281100759]]]}}, {"type": "Feature", "properties": {"code": "malangbong", "name": "Malangbong", "kemendagriCode": "32.05.14", "centroid": [108.08182295600537, -7.058852976709533]}, "geometry": {"type": "Polygon", "coordinates": [[[108.08214576021874, -6.993942032099028], [108.1002059320582, -7.01968413731305], [108.12622686307935, -7.0371993928376355], [108.13635083981944, -7.0603699631032555], [108.11798627624569, -7.078060408361125], [108.12600227898207, -7.102149886108293], [108.12250571756488, -7.114765338349628], [108.11335723095152, -7.1026313273737856], [108.09938097315347, -7.102882254412464], [108.06636385171043, -7.130657576585861], [108.04728951799694, -7.115136779039062], [108.05087766277398, -7.080881402654541], [108.03564230195076, -7.0335942077064715], [108.0421585412837, -7.0321411218153], [108.04414205900889, -7.014516295590511], [108.05613263891024, -7.012842106877656], [108.0600062114176, -6.995049449172711], [108.06979674562336, -6.9869991283071045], [108.08211625076444, -6.987134568905162], [108.08214576021874, -6.993942032099028]]]}}, {"type": "Feature", "properties": {"code": "sukawening", "name": "Sukawening", "kemendagriCode": "32.05.15", "centroid": [108.01499566832018, -7.135129704663135]}, "geometry": {"type": "Polygon", "coordinates": [[[108.01064071919387, -7.108556599707242], [108.02456924817233, -7.116875522887028], [108.04728951799694, -7.115136779039062], [108.05900778857864, -7.125965082322637], [108.04166239520345, -7.139717943128517], [108.035643344265, -7.156241253630924], [108.01626058176049, -7.161276949871308], [108.02429504038389, -7.169032778739677], [108.01918155008855, -7.177587547327391], [108.02413984797568, -7.184777910372247], [108.00691911862248, -7.167957975580066], [108.003753529302, -7.153963904910256], [107.97771536277384, -7.137187914590527], [107.98601605669575, -7.11134603589079], [108.01064071919387, -7.108556599707242]]]}}, {"type": "Feature", "properties": {"code": "karangtengah", "name": "Karangtengah", "kemendagriCode": "32.05.16", "centroid": [108.05695220060024, -7.1600629582613955]}, "geometry": {"type": "Polygon", "coordinates": [[[108.06636385171043, -7.130657576585861], [108.08767628323392, -7.161922568671571], [108.07041735068026, -7.193062188968781], [108.02483604194981, -7.172666958013679], [108.01626058176049, -7.161276949871308], [108.035643344265, -7.156241253630924], [108.05361344270625, -7.128852487951917], [108.06636385171043, -7.130657576585861]]]}}, {"type": "Feature", "properties": {"code": "bayongbong", "name": "Bayongbong", "kemendagriCode": "32.05.17", "centroid": [107.84446242365779, -7.2737282047064316]}, "geometry": {"type": "Polygon", "coordinates": [[[107.83304403325559, -7.229811406071462], [107.87848673127769, -7.244485429858628], [107.86737535558825, -7.2675334701934275], [107.85981099688007, -7.322631501042906], [107.8372713585864, -7.3131049880047385], [107.82132918009762, -7.291852305639338], [107.80777333197375, -7.286428991704554], [107.82692466474157, -7.243431824618938], [107.83670752773025, -7.243201562202273], [107.82562600593548, -7.234177501290617], [107.83304403325559, -7.229811406071462]]]}}, {"type": "Feature", "properties": {"code": "cigedug", "name": "Cigedug", "kemendagriCode": "32.05.18", "centroid": [107.82538577787598, -7.328968755887945]}, "geometry": {"type": "Polygon", "coordinates": [[[107.80782510774259, -7.286450792170285], [107.82132918009762, -7.291852305639338], [107.8372713585864, -7.3131049880047385], [107.85981099688007, -7.322631501042906], [107.85841456288182, -7.335863026657307], [107.83495300257908, -7.360295283700339], [107.81838705341983, -7.3631524298407385], [107.80279107524797, -7.349343430654756], [107.79833171403743, -7.33154063039575], [107.80782510774259, -7.286450792170285]]]}}, {"type": "Feature", "properties": {"code": "cilawu", "name": "Cilawu", "kemendagriCode": "32.05.19", "centroid": [107.89941095807261, -7.299926277815884]}, "geometry": {"type": "Polygon", "coordinates": [[[107.90977120717554, -7.239116097729664], [107.92323359235644, -7.27532338066942], [107.95507649058766, -7.277247889378543], [107.92433676193207, -7.285623214439738], [107.9285374907127, -7.312703438013216], [107.94027101289697, -7.316213609770216], [107.94705303337088, -7.330861819417407], [107.92947522999793, -7.338205621192401], [107.92843399043636, -7.350304947115546], [107.90463043144933, -7.3605495769014055], [107.85981099688007, -7.322631501042906], [107.86492022169097, -7.27813416765764], [107.87864184184758, -7.241247908264313], [107.89346199827264, -7.236160656588993], [107.89969149056992, -7.244479379219911], [107.90470882175475, -7.229050953738465], [107.90977120717554, -7.239116097729664]]]}}, {"type": "Feature", "properties": {"code": "cisurupan", "name": "Cisurupan", "kemendagriCode": "32.05.20", "centroid": [107.76646952113242, -7.304425792805771]}, "geometry": {"type": "Polygon", "coordinates": [[[107.78273966680223, -7.25378303935571], [107.8141792163978, -7.270870663650157], [107.80454469388258, -7.2888346143259355], [107.8045641767954, -7.3209125449779435], [107.7946087950599, -7.335151944406675], [107.79341842721868, -7.35740074734656], [107.76596875135687, -7.367840557895363], [107.74762826533225, -7.345959183769253], [107.71569304539781, -7.3265426679097345], [107.730985641774, -7.294556308926474], [107.72240443401745, -7.289184973107979], [107.73903205058872, -7.271821017725756], [107.7263815157944, -7.257009655770958], [107.78273966680223, -7.25378303935571]]]}}, {"type": "Feature", "properties": {"code": "sukaresmi", "name": "Sukaresmi", "kemendagriCode": "32.05.21", "centroid": [107.7723642125133, -7.245347244964065]}, "geometry": {"type": "Polygon", "coordinates": [[[107.74893992203982, -7.223591637244226], [107.78091048263275, -7.2385254823650484], [107.81554413725218, -7.235070816764733], [107.83670752773025, -7.243201562202273], [107.82692466474157, -7.243431824618938], [107.81528694283821, -7.267447599327227], [107.79937866879061, -7.26754058473017], [107.7870566050783, -7.254249031167831], [107.7263815157944, -7.257009655770958], [107.71013412808759, -7.248326447807301], [107.71889764461065, -7.234800771938012], [107.73221664188458, -7.236544340648777], [107.74893992203982, -7.223591637244226]]]}}, {"type": "Feature", "properties": {"code": "cikajang", "name": "Cikajang", "kemendagriCode": "32.05.22", "centroid": [107.79944749726431, -7.399371021002025]}, "geometry": {"type": "Polygon", "coordinates": [[[107.74935106509963, -7.348305386384425], [107.76581258228492, -7.3677578508441], [107.7740713866852, -7.3653726131555], [107.79341842721868, -7.35740074734656], [107.7996255920475, -7.3322612130844504], [107.80475266840097, -7.353615096159729], [107.82349694822562, -7.362978437105141], [107.85838360821703, -7.3358825221606025], [107.84728187415925, -7.385805463651195], [107.82132813688406, -7.406532750386077], [107.8095115587115, -7.405679987141639], [107.85784477761445, -7.44611554599561], [107.8544508063597, -7.471156043316682], [107.82817173933438, -7.478337455409189], [107.80603311683495, -7.4705838433696385], [107.80846913923943, -7.458713410195685], [107.79136007510743, -7.449610372620555], [107.79665505398759, -7.410046487055695], [107.74425926195545, -7.402373814000271], [107.72624047601721, -7.389878921275169], [107.73104864467928, -7.358018106750194], [107.72452519368278, -7.330860722244495], [107.74935106509963, -7.348305386384425]]]}}, {"type": "Feature", "properties": {"code": "banjarwangi", "name": "Banjarwangi", "kemendagriCode": "32.05.23", "centroid": [107.8830052910101, -7.404828657206032]}, "geometry": {"type": "Polygon", "coordinates": [[[107.89211978260192, -7.354641492410906], [107.94094215175897, -7.393387251220645], [107.94039179904235, -7.407561070287102], [107.95089370328185, -7.421364006243834], [107.92231090502429, -7.447611452206729], [107.890138982628, -7.455133230713955], [107.87944952117851, -7.470711431087636], [107.85458629102459, -7.47136552869614], [107.85784477761445, -7.44611554599561], [107.8095115587115, -7.405679987141639], [107.82132813688406, -7.406532750386077], [107.84728187415925, -7.385805463651195], [107.85981099688007, -7.322631501042906], [107.87791699367438, -7.333185083924434], [107.89211978260192, -7.354641492410906]]]}}, {"type": "Feature", "properties": {"code": "singajaya", "name": "Singajaya", "kemendagriCode": "32.05.24", "centroid": [107.92088425658272, -7.477589521141136]}, "geometry": {"type": "Polygon", "coordinates": [[[107.95116974388861, -7.421570962729675], [107.94558514733671, -7.450951134087518], [107.95337039572723, -7.460348520667651], [107.94128560914362, -7.525315753019527], [107.89611637966726, -7.505842241726043], [107.87503223205192, -7.470999875144059], [107.89117667796137, -7.454509719947566], [107.92231090502429, -7.447611452206729], [107.94260660710927, -7.422476097993467], [107.95116974388861, -7.421570962729675]]]}}, {"type": "Feature", "properties": {"code": "cihurip", "name": "Cihurip", "kemendagriCode": "32.05.25", "centroid": [107.85069743869542, -7.5036506271276044]}, "geometry": {"type": "Polygon", "coordinates": [[[107.81519607803665, -7.470340449951777], [107.82817173933438, -7.478337455409189], [107.83411583987419, -7.471548443605741], [107.87959041616483, -7.4747034703888175], [107.88255261211344, -7.490136936570309], [107.89106199731339, -7.490470123697207], [107.89748965162619, -7.5027473094407355], [107.87886671822451, -7.507628175699722], [107.87651815668767, -7.546426335307103], [107.85216865705792, -7.54478736224695], [107.81519065692333, -7.509711343703486], [107.80352461896604, -7.475079342937306], [107.81519607803665, -7.470340449951777]]]}}, {"type": "Feature", "properties": {"code": "peundeuy", "name": "Peundeuy", "kemendagriCode": "32.05.26", "centroid": [107.909243822569, -7.548667266231191]}, "geometry": {"type": "Polygon", "coordinates": [[[107.90529619326475, -7.508758244897024], [107.94303528784832, -7.524751064210193], [107.94639278080223, -7.536341657141691], [107.93516119633222, -7.557318532724082], [107.9404835307904, -7.580673689738944], [107.9165995319429, -7.602280089854219], [107.87770674207258, -7.562151186328151], [107.87886671822451, -7.507628175699722], [107.88951197439815, -7.501964695114566], [107.90529619326475, -7.508758244897024]]]}}, {"type": "Feature", "properties": {"code": "pameungpeuk", "name": "Pameungpeuk", "kemendagriCode": "32.05.27", "centroid": [107.73124131833697, -7.628304511985035]}, "geometry": {"type": "Polygon", "coordinates": [[[107.74395289171264, -7.573467505820702], [107.76038710188328, -7.590090388360693], [107.73976835612478, -7.611898285177688], [107.74732461104202, -7.621281600965062], [107.76833222455258, -7.618071065327342], [107.75223615587396, -7.640320424048298], [107.75072758001386, -7.6673814506933695], [107.69040004902308, -7.668228316183786], [107.70057448942123, -7.656507885430528], [107.70020515134672, -7.642477025294454], [107.71056099489408, -7.6368207069100436], [107.7123584240021, -7.606667006177361], [107.73527136278324, -7.571862440798952], [107.74395289171264, -7.573467505820702]]]}}, {"type": "Feature", "properties": {"code": "cisompet", "name": "Cisompet", "kemendagriCode": "32.05.28", "centroid": [107.80818004678468, -7.554817760132564]}, "geometry": {"type": "Polygon", "coordinates": [[[107.8038523993688, -7.475327413729133], [107.81338700900335, -7.507163995122255], [107.84150947218444, -7.536218715321411], [107.85648912697167, -7.546733040097649], [107.87651815668767, -7.546426335307103], [107.87842688589211, -7.563714985957802], [107.90195381521647, -7.593931874856082], [107.89533409179495, -7.610471373155292], [107.84200527562302, -7.614514996669698], [107.79410435992833, -7.59507241216204], [107.76840130327759, -7.6180662944238975], [107.74732461104202, -7.621281600965062], [107.74066898578513, -7.613394924336262], [107.76048955265077, -7.588846012633326], [107.7506501366945, -7.573787427947423], [107.73527136278324, -7.571862440798952], [107.74827799763153, -7.54027710030789], [107.74181579856031, -7.5237770867431095], [107.76956428586317, -7.494722933116805], [107.78460575195396, -7.452354923640769], [107.80846913923943, -7.458713410195685], [107.8038523993688, -7.475327413729133]]]}}, {"type": "Feature", "properties": {"code": "cibalong", "name": "Cibalong", "kemendagriCode": "32.05.29", "centroid": [107.85093031843365, -7.662087855469096]}, "geometry": {"type": "MultiPolygon", "coordinates": [[[[107.89939151810415, -7.740605406414318], [107.89896622960788, -7.740621516869453], [107.89906193186272, -7.740278424609585], [107.89925895623588, -7.740236663691007], [107.89939151810415, -7.740605406414318]]], [[[107.91921579916988, -7.740106085727234], [107.919019493355, -7.740266700148027], [107.91889100181834, -7.740234577263891], [107.91905875415824, -7.739988303317489], [107.91921579916988, -7.740106085727234]]], [[[107.90678509825375, -7.738804044570941], [107.9062639959867, -7.7388647218294295], [107.9061890428901, -7.7387790614045], [107.9068671892694, -7.7386220172922435], [107.90678509825375, -7.738804044570941]]], [[[107.85181933879153, -7.735900253294005], [107.85324775627902, -7.736947459857333], [107.84957522361776, -7.736227066026231], [107.85010286395607, -7.735344198875623], [107.85181933879153, -7.735900253294005]]], [[[107.74038694580099, -7.670618107139887], [107.74058804500231, -7.670669678762636], [107.7403602818016, -7.670615012572739], [107.74038694580099, -7.670618107139887]]], [[[107.89677126238394, -7.583903479861647], [107.91084151462428, -7.591888162808402], [107.92506652759823, -7.61753760187878], [107.92104429805596, -7.636934527806147], [107.93026488691504, -7.657429853305018], [107.92331103297784, -7.665380451046929], [107.93114262523204, -7.682578590329626], [107.92707999994212, -7.700429272293036], [107.90667496008138, -7.737153636630978], [107.84699183200752, -7.7370852755649935], [107.82438711157602, -7.6966026003296975], [107.74060917637246, -7.670673234681999], [107.75072758001386, -7.6673814506933695], [107.75244693807576, -7.639849038102568], [107.78079050317922, -7.601209614232289], [107.79410435992833, -7.59507241216204], [107.84178919011907, -7.614475306889858], [107.8764972042826, -7.614509920896069], [107.89533409179495, -7.610471373155292], [107.90243446597788, -7.598333878205892], [107.89677126238394, -7.583903479861647]]]]}}, {"type": "Feature", "properties": {"code": "cikelet", "name": "Cikelet", "kemendagriCode": "32.05.30", "centroid": [107.69635906384481, -7.553216189617371]}, "geometry": {"type": "Polygon", "coordinates": [[[107.77624297243528, -7.467717956718275], [107.77698669557958, -7.482110968446364], [107.75787782520155, -7.513823697905309], [107.74181579856031, -7.5237770867431095], [107.74777956817258, -7.543292494752791], [107.73314938093927, -7.582096969399572], [107.71090250164917, -7.609994362849534], [107.71019315958671, -7.637769751572705], [107.70020515134672, -7.642477025294454], [107.70048243481659, -7.656730803084031], [107.68670920886296, -7.66440481433068], [107.68818892997518, -7.6510352508760775], [107.67522423231253, -7.628361854615832], [107.623560849054, -7.596042523443657], [107.61772082885324, -7.5834705741076505], [107.62282973800205, -7.5642036083098105], [107.65028796191996, -7.528791307173037], [107.66037681833558, -7.527177023201034], [107.66249276662796, -7.5067514778983195], [107.68238830637529, -7.504449405915295], [107.71251879021008, -7.475205110427453], [107.77624297243528, -7.467717956718275]]]}}, {"type": "Feature", "properties": {"code": "bungbulang", "name": "Bungbulang", "kemendagriCode": "32.05.31", "centroid": [107.59004780726539, -7.435078701130039]}, "geometry": {"type": "Polygon", "coordinates": [[[107.64694847159473, -7.301014432270165], [107.64907448869678, -7.315485407125777], [107.64139527936868, -7.323980640594016], [107.64692552988936, -7.3334591154457485], [107.63476164613314, -7.362621771377576], [107.64534559012696, -7.413269697738315], [107.6252434563205, -7.4795867702132455], [107.6094469671039, -7.500488028099994], [107.59419268274615, -7.546468836367637], [107.58460959425742, -7.554567976031194], [107.59760598133101, -7.509559556128579], [107.5864366991944, -7.500641105302748], [107.5829059446537, -7.4842017168357415], [107.56295839081713, -7.48786991836198], [107.55916819625531, -7.504938130790038], [107.55108723368892, -7.504342248995556], [107.55302793289286, -7.52912793420677], [107.52508178089954, -7.517074485399121], [107.51241525256194, -7.540094862587807], [107.49681197099574, -7.536635192260292], [107.49781266192485, -7.51620456398939], [107.51671972263716, -7.503899837407516], [107.54551043785648, -7.440739800801111], [107.59170304366057, -7.399778810343776], [107.60286404573918, -7.379030215971625], [107.59805615676629, -7.358112149755868], [107.61170704884131, -7.330430321102369], [107.61016046403427, -7.309349917364727], [107.627704921445, -7.299018093809934], [107.64694847159473, -7.301014432270165]]]}}, {"type": "Feature", "properties": {"code": "mekarmukti", "name": "Mekarmukti", "kemendagriCode": "32.05.32", "centroid": [107.56338343761628, -7.527559102399156]}, "geometry": {"type": "Polygon", "coordinates": [[[107.5829059446537, -7.4842017168357415], [107.5864366991944, -7.500641105302748], [107.59760598133101, -7.509559556128579], [107.58064741244817, -7.566201644690125], [107.51241525256194, -7.540094862587807], [107.52347234697129, -7.517394591886841], [107.55302793289286, -7.52912793420677], [107.55108723368892, -7.504342248995556], [107.55916819625531, -7.504938130790038], [107.56295839081713, -7.48786991836198], [107.5829059446537, -7.4842017168357415]]]}}, {"type": "Feature", "properties": {"code": "pakenjeng", "name": "Pakenjeng", "kemendagriCode": "32.05.33", "centroid": [107.68634467616512, -7.469233367926394]}, "geometry": {"type": "Polygon", "coordinates": [[[107.72701190907242, -7.390449619354399], [107.74425926195545, -7.402373814000271], [107.79665505398759, -7.410046487055695], [107.79136007510743, -7.449610372620555], [107.77621910982413, -7.467637089679897], [107.71309579883211, -7.475001481433196], [107.68238830637529, -7.504449405915295], [107.66249276662796, -7.5067514778983195], [107.66037681833558, -7.527177023201034], [107.63595218304687, -7.545319311237165], [107.6177519238123, -7.5835953253639445], [107.58072841978083, -7.566305708841355], [107.62503496019531, -7.480117441266827], [107.63975125661528, -7.421901869175883], [107.67121137280668, -7.413665189896562], [107.67888594882754, -7.423265992331608], [107.67346860279383, -7.442069741625232], [107.67866733532935, -7.445797142823835], [107.68495230320627, -7.427449667268263], [107.70389052902476, -7.409013794650832], [107.72092107424822, -7.410502174435749], [107.72701190907242, -7.390449619354399]]]}}, {"type": "Feature", "properties": {"code": "pamulihan", "name": "Pamulihan", "kemendagriCode": "32.05.34", "centroid": [107.68306660419216, -7.35696902650205]}, "geometry": {"type": "Polygon", "coordinates": [[[107.69670368412778, -7.282770644949267], [107.70865774256083, -7.295987103322091], [107.72634022701993, -7.297978466732786], [107.7156729626372, -7.32698288335331], [107.72452519368278, -7.330860722244495], [107.73144757314702, -7.37404121972645], [107.72092107424822, -7.410502174435749], [107.70389052902476, -7.409013794650832], [107.67536653833514, -7.446199064235373], [107.67888594882754, -7.423265992331608], [107.67288537266188, -7.4152211258542025], [107.64430662405152, -7.4167888060584914], [107.63476164613314, -7.362621771377576], [107.64705081444362, -7.332776971579904], [107.64403878526178, -7.297008852776287], [107.6579948289982, -7.289800111186139], [107.66760263895071, -7.301150073417091], [107.69670368412778, -7.282770644949267]]]}}, {"type": "Feature", "properties": {"code": "cisewu", "name": "Cisewu", "kemendagriCode": "32.05.35", "centroid": [107.52319666926498, -7.377583591302113]}, "geometry": {"type": "Polygon", "coordinates": [[[107.5055671409109, -7.307471500709141], [107.51612507381316, -7.308743116901269], [107.52580757605887, -7.3282470819372065], [107.55635414472806, -7.331812466671977], [107.57679334263872, -7.312072364847722], [107.60998142340401, -7.309274763719316], [107.61170704884131, -7.330430321102369], [107.59897740518318, -7.364518241923292], [107.57424324123264, -7.393737869906715], [107.50059992894364, -7.4324626853046425], [107.48559659410762, -7.452394236604675], [107.44737523178156, -7.453984148049926], [107.42766224901362, -7.438205147049871], [107.43188001724906, -7.423579996019953], [107.47412383844443, -7.401105011786797], [107.48291325903972, -7.3483283982369585], [107.49689056005138, -7.336681287411466], [107.49606907342906, -7.313349752888712], [107.5055671409109, -7.307471500709141]]]}}, {"type": "Feature", "properties": {"code": "caringin", "name": "Caringin", "kemendagriCode": "32.05.36", "centroid": [107.49604939166727, -7.464239212483737]}, "geometry": {"type": "Polygon", "coordinates": [[[107.60157750170038, -7.370353689970784], [107.5919670594323, -7.399461662625583], [107.57291715939942, -7.41047520106963], [107.53207144134399, -7.461421866026228], [107.51671972263716, -7.503899837407516], [107.49781266192485, -7.51620456398939], [107.49561518918966, -7.534202128625282], [107.48070107789249, -7.537947716813619], [107.47384802626544, -7.518519805644473], [107.4233192124118, -7.505204815749607], [107.420308962089, -7.462072935617414], [107.4276585851756, -7.438098173591811], [107.44765360882707, -7.454068692416172], [107.48559659410762, -7.452394236604675], [107.50059992894364, -7.4324626853046425], [107.5253097509443, -7.424949972862919], [107.58279807367222, -7.3870102907922615], [107.59350738585721, -7.367803498632497], [107.60157750170038, -7.370353689970784]]]}}, {"type": "Feature", "properties": {"code": "talegong", "name": "Talegong", "kemendagriCode": "32.05.37", "centroid": [107.52468214397285, -7.292263809290406]}, "geometry": {"type": "MultiPolygon", "coordinates": [[[[107.60998142340401, -7.309274763719316], [107.60989000192211, -7.309275398640693], [107.60889696872022, -7.309153179875295], [107.6094623607994, -7.309078932746502], [107.60998142340401, -7.309274763719316]]], [[[107.53541150363804, -7.248369953410588], [107.54606291027517, -7.257467084238499], [107.55748860621429, -7.2514944787870945], [107.58215516273066, -7.276700884837908], [107.59922763704589, -7.282952287318153], [107.60740019556266, -7.309105867441758], [107.57679334263872, -7.312072364847722], [107.55635414472806, -7.331812466671977], [107.52580757605887, -7.3282470819372065], [107.51612507381316, -7.308743116901269], [107.50291430635019, -7.307479146745152], [107.49606907342906, -7.313349752888712], [107.49689056005138, -7.336681287411466], [107.47878580701945, -7.346843346842945], [107.45544359124881, -7.290247667795597], [107.48063712890041, -7.251571332151229], [107.49261593128028, -7.258699007952828], [107.50098250773658, -7.25003060013205], [107.52041054031423, -7.256946408250087], [107.53541150363804, -7.248369953410588]]]]}}, {"type": "Feature", "properties": {"code": "limbangan", "name": "Limbangan", "kemendagriCode": "32.05.38", "centroid": [107.95212188178013, -7.005399479074484]}, "geometry": {"type": "Polygon", "coordinates": [[[107.91825214142324, -6.947613939831399], [107.95788480983617, -6.960451140607631], [107.96424475958804, -6.976101805653741], [107.98860196910567, -6.991599466342279], [107.98226876609073, -7.010455893424705], [107.98922534137648, -7.028233827429119], [107.99374621171836, -7.019989360920249], [108.01530432363569, -7.016372380281098], [108.03121014073548, -7.0264119538485375], [108.03083526463581, -7.0397319799468505], [108.00172683782336, -7.04708728674882], [107.97442360486554, -7.040819001295802], [107.9628622686788, -7.04953437890839], [107.92933188975496, -7.03377183190446], [107.91007384792982, -7.0359209597843915], [107.90642294216514, -6.990224209579537], [107.88941151562898, -6.982329482219768], [107.9162474653483, -6.968247351733851], [107.91825214142324, -6.947613939831399]]]}}, {"type": "Feature", "properties": {"code": "selaawi", "name": "Selaawi", "kemendagriCode": "32.05.39", "centroid": [108.01168243333491, -7.000782661216113]}, "geometry": {"type": "Polygon", "coordinates": [[[107.96458761712489, -6.959164702688838], [107.99068887019524, -6.981968524927424], [108.01789413100943, -6.980430188702201], [108.04211607799465, -6.996352561421531], [108.06032152991475, -6.994842363184489], [108.05603270174782, -7.01299915098997], [108.04076417662549, -7.019609928855061], [108.03947070241105, -7.035952067333994], [108.01530432363569, -7.016372380281098], [107.98758861302412, -7.026690617777717], [107.98226876609073, -7.010455893424705], [107.98867731430664, -6.991689704316343], [107.96383482521708, -6.975584494029135], [107.95788480983617, -6.960451140607631], [107.96458761712489, -6.959164702688838]]]}}, {"type": "Feature", "properties": {"code": "cibiuk", "name": "Cibiuk", "kemendagriCode": "32.05.40", "centroid": [107.95553701558329, -7.0648014274056985]}, "geometry": {"type": "Polygon", "coordinates": [[[107.97492612084386, -7.042134535880052], [107.98170299000105, -7.07143020873707], [107.97736900957221, -7.0849150850630735], [107.9611924128996, -7.082694532126936], [107.94718090527459, -7.091054748577733], [107.92579499104608, -7.050251208726252], [107.93726659018103, -7.0423183348232214], [107.9628622686788, -7.04953437890839], [107.97492612084386, -7.042134535880052]]]}}, {"type": "Feature", "properties": {"code": "pangatikan", "name": "Pangatikan", "kemendagriCode": "32.05.41", "centroid": [108.02032392548965, -7.175076168821612]}, "geometry": {"type": "MultiPolygon", "coordinates": [[[[108.01693108839908, -7.180734836343561], [108.02466241523831, -7.184545006646715], [108.01918155008855, -7.177587547327391], [108.0257615603478, -7.172586824822076], [108.07510337432132, -7.198284076349012], [108.06055780969524, -7.209090991056371], [108.01693108839908, -7.180734836343561]]], [[[108.01693108839908, -7.180734836343561], [107.99127312825232, -7.1713905250526295], [107.98059944990473, -7.156066495572247], [107.97763687803956, -7.1625565286608435], [107.97430124760456, -7.13913657729114], [108.003753529302, -7.153963904910256], [108.01693108839908, -7.180734836343561]]]]}}, {"type": "Feature", "properties": {"code": "sucinaraja", "name": "Sucinaraja", "kemendagriCode": "32.05.42", "centroid": [108.00645692710133, -7.2151069288097744]}, "geometry": {"type": "Polygon", "coordinates": [[[107.97833128685949, -7.179552125330247], [107.9905224128791, -7.182962905813383], [107.99809413793417, -7.2022193288589165], [108.06638560091483, -7.2159594831435925], [107.98937954003378, -7.24545922925995], [107.97279599384012, -7.205979756760314], [107.97044507607944, -7.186696578883982], [107.97833128685949, -7.179552125330247]]]}}]}